NORAD_CAT_ID,OBJECT_NAME,OBJECT_TYPE,EPOCH,MEAN_MOTION,ECCENTRICITY,INCLINATION,RA_OF_ASC_NODE,ARG_OF_PERICENTER,MEAN_ANOMALY,BSTAR,MEAN_MOTION_DOT,MEAN_MOTION_DDOT,TLE_LINE0,TLE_LINE1,TLE_LINE2,SEMIMAJOR_AXIS,PERIOD,APOGEE,PERIGEE,DECAYED
51142.0,STARLINK-3369,PAYLOAD,2023-12-16 06:44:42,15.0883898,0.0001562,53.2181,345.2134,102.1679,257.9488,3.0669e-05,2e-06,0.0,0 STARLINK-3369,1 51142U 22005AQ  23350.28105279  .00000200  00000-0  30669-4 0  9999,2 51142  53.2181 345.2134 0001562 102.1679 257.9488 15.08838980107075,6917.884,95.438,540.829,538.668,0.0
51142.0,STARLINK-3369,PAYLOAD,2023-12-17 06:35:30,15.08830477,0.0001606,53.2176,340.7505,107.4811,252.6356,0.00018717,2.691e-05,0.0,0 STARLINK-3369,1 51142U 22005AQ  23351.27465464  .00002691  00000-0  18717-3 0  9999,2 51142  53.2176 340.7505 0001606 107.4811 252.6356 15.08830477106074,6917.909,95.438,540.886,538.663,0.0
51142.0,STARLINK-3369,PAYLOAD,2023-12-18 03:15:30,15.0884398,0.0001445,53.217,336.8868,107.14,252.9751,0.000106,1.4e-05,0.0,0 STARLINK-3369,1 51142U 22005AQ  23352.13577070  .00001400  00000-0  10600-3 0  9992,2 51142  53.2170 336.8868 0001445 107.1400 252.9751 15.08843980107355,6917.868,95.437,540.733,538.734,0.0
51142.0,STARLINK-3369,PAYLOAD,2023-12-18 04:50:53,15.08845631,0.000148,53.2173,336.5893,104.7095,255.4062,0.00010738,1.422e-05,0.0,0 STARLINK-3369,1 51142U 22005AQ  23352.20200959  .00001422  00000-0  10738-3 0  9995,2 51142  53.2173 336.5893 0001480 104.7095 255.4062 15.08845631106217,6917.863,95.437,540.752,538.704,0.0
51142.0,STARLINK-3369,PAYLOAD,2023-12-19 03:06:18,15.08833776,0.0002013,53.2172,332.4232,138.2249,221.8897,-1.2914e-05,-4.94e-06,0.0,0 STARLINK-3369,1 51142U 22005AQ  23353.12938133 -.00000494  00000-0 -12914-4 0  9998,2 51142  53.2172 332.4232 0002013 138.2249 221.8897 15.08833776107507,6917.899,95.438,541.157,538.372,0.0
51142.0,STARLINK-3369,PAYLOAD,2023-12-19 06:17:05,15.08831728,0.000138,53.217,331.83,79.4007,280.714,-8.3741e-06,-4.21e-06,0.0,0 STARLINK-3369,1 51142U 22005AQ  23353.26186715 -.00000421  00000-0 -83741-5 0  9991,2 51142  53.2170 331.8300 0001380  79.4007 280.7140 15.08831728106372,6917.906,95.438,540.725,538.816,0.0
51142.0,STARLINK-3369,PAYLOAD,2023-12-20 06:07:51,15.08840867,0.0001394,53.2181,327.3712,96.1114,264.0037,0.00015429,2.169e-05,0.0,0 STARLINK-3369,1 51142U 22005AQ  23354.25545958  .00002169  00000-0  15429-3 0  9994,2 51142  53.2181 327.3712 0001394  96.1114 264.0037 15.08840867107679,6917.878,95.437,540.707,538.778,0.0
51142.0,STARLINK-3369,PAYLOAD,2023-12-21 04:23:15,15.0884442,0.000154,53.2192,323.2054,69.9932,290.1226,0.00016455,2.332e-05,0.0,0 STARLINK-3369,1 51142U 22005AQ  23355.18281894  .00002332  00000-0  16455-3 0  9995,2 51142  53.2192 323.2054 0001540  69.9932 290.1226 15.08844420106661,6917.867,95.437,540.797,538.667,0.0
51142.0,STARLINK-3369,PAYLOAD,2023-12-22 02:38:39,15.08842823,0.0001417,53.219,319.0435,87.018,273.0974,8.344e-06,-1.55e-06,0.0,0 STARLINK-3369,1 51142U 22005AQ  23356.11018404 -.00000155  00000-0  83440-5 0  9996,2 51142  53.2190 319.0435 0001417  87.0180 273.0974 15.08842823107952,6917.872,95.437,540.717,538.756,0.0
51142.0,STARLINK-3369,PAYLOAD,2023-12-23 04:04:49,15.08845496,0.0001594,53.2186,314.2866,101.5846,258.5325,-9.6372e-06,-4.41e-06,0.0,0 STARLINK-3369,1 51142U 22005AQ  23357.17002299 -.00000441  00000-0 -96372-5 0  9995,2 51142  53.2186 314.2866 0001594 101.5846 258.5325 15.08845496108115,6917.864,95.437,540.831,538.626,0.0
51142.0,STARLINK-3369,PAYLOAD,2023-12-23 07:15:36,15.08812708,0.0001762,53.2183,313.6878,103.0841,257.0348,0.0004786,7.331e-05,0.0,0 STARLINK-3369,1 51142U 22005AQ  23357.30251046  .00007331  00000-0  47860-3 0  9995,2 51142  53.2183 313.6878 0001762 103.0841 257.0348 15.08812708108138,6917.964,95.439,541.048,538.61,0.0
51142.0,STARLINK-3369,PAYLOAD,2023-12-24 03:55:37,15.08841334,0.0001444,53.2181,309.82,94.5664,265.5493,0.00012854,1.758e-05,0.0,0 STARLINK-3369,1 51142U 22005AQ  23358.16362474  .00001758  00000-0  12854-3 0  9990,2 51142  53.2181 309.8200 0001444  94.5664 265.5493 15.08841334108262,6917.876,95.437,540.74,538.742,0.0
51142.0,STARLINK-3369,PAYLOAD,2023-12-25 05:21:46,15.08852961,0.0001539,53.2186,305.064,88.8551,271.2617,0.00019343,2.793e-05,0.0,0 STARLINK-3369,1 51142U 22005AQ  23359.22345810  .00002793  00000-0  19343-3 0  9993,2 51142  53.2186 305.0640 0001539  88.8551 271.2617 15.08852961108427,6917.841,95.437,540.77,538.641,0.0
51142.0,STARLINK-3369,PAYLOAD,2023-12-25 21:15:39,15.08838179,0.0001537,53.2173,302.0941,91.9189,268.198,1.1825e-05,-1e-06,0.0,0 STARLINK-3369,1 51142U 22005AQ  23359.88587329 -.00000100  00000-0  11825-4 0  9997,2 51142  53.2173 302.0941 0001537  91.9189 268.1980 15.08838179107370,6917.886,95.438,540.814,538.688,0.0
51142.0,STARLINK-3369,PAYLOAD,2023-12-26 03:37:11,15.0884123,0.000143,53.2173,300.9052,83.2486,276.8669,3.0825e-05,2.03e-06,0.0,0 STARLINK-3369,1 51142U 22005AQ  23360.15083103  .00000203  00000-0  30825-4 0  9994,2 51142  53.2173 300.9052 0001430  83.2486 276.8669 15.08841230108560,6917.877,95.437,540.731,538.752,0.0
51142.0,STARLINK-3369,PAYLOAD,2023-12-26 05:12:34,15.08843531,0.0001448,53.2173,300.6073,87.2966,272.8192,5.0844e-05,5.21e-06,0.0,0 STARLINK-3369,1 51142U 22005AQ  23360.21706914  .00000521  00000-0  50844-4 0  9999,2 51142  53.2173 300.6073 0001448  87.2966 272.8192 15.08843531107423,6917.87,95.437,540.736,538.733,0.0
51142.0,STARLINK-3369,PAYLOAD,2023-12-27 05:03:21,15.08853184,0.0001556,53.2187,296.1458,79.78,280.3367,4.1515e-05,3.73e-06,0.0,0 STARLINK-3369,1 51142U 22005AQ  23361.21066326  .00000373  00000-0  41515-4 0  9996,2 51142  53.2187 296.1458 0001556  79.7800 280.3367 15.08853184108724,6917.84,95.437,540.782,538.629,0.0
51142.0,STARLINK-3369,PAYLOAD,2023-12-28 03:18:46,15.08839538,0.0001482,53.2174,291.9842,83.5644,276.5517,7.5864e-05,9.2e-06,0.0,0 STARLINK-3369,1 51142U 22005AQ  23362.13803343  .00000920  00000-0  75864-4 0  9998,2 51142  53.2174 291.9842 0001482  83.5644 276.5517 15.08839538108863,6917.882,95.438,540.772,538.722,0.0
51142.0,STARLINK-3369,PAYLOAD,2023-12-29 01:34:09,15.08848134,0.0001522,53.2169,287.8253,84.0919,276.0247,2.2731e-05,7.4e-07,0.0,0 STARLINK-3369,1 51142U 22005AQ  23363.06539026  .00000074  00000-0  22731-4 0  9990,2 51142  53.2169 287.8253 0001522  84.0919 276.0247 15.08848134107858,6917.856,95.437,540.773,538.668,0.0
51142.0,STARLINK-3369,PAYLOAD,2023-12-29 22:14:10,15.08815917,0.0001427,53.2163,283.9604,85.2597,274.8558,0.00040265,6.122e-05,0.0,0 STARLINK-3369,1 51142U 22005AQ  23363.92651598  .00006122  00000-0  40265-3 0  9995,2 51142  53.2163 283.9604 0001427  85.2597 274.8558 15.08815917107986,6917.954,95.439,540.806,538.832,0.0
51142.0,STARLINK-3369,PAYLOAD,2023-12-30 01:24:56,15.08845264,0.0001506,53.2172,283.3576,80.4107,279.7055,4.1794e-05,3.77e-06,0.0,0 STARLINK-3369,1 51142U 22005AQ  23364.05899052  .00000377  00000-0  41794-4 0  9994,2 51142  53.2172 283.3576 0001506  80.4107 279.7055 15.08845264109155,6917.864,95.437,540.771,538.687,0.0
51142.0,STARLINK-3369,PAYLOAD,2023-12-30 22:04:57,15.08834622,0.0001784,53.2182,279.4986,108.8145,251.3041,0.00013132,1.802e-05,0.0,0 STARLINK-3369,1 51142U 22005AQ  23364.92011189  .00001802  00000-0  13132-3 0  9995,2 51142  53.2182 279.4986 0001784 108.8145 251.3041 15.08834622108136,6917.897,95.438,540.996,538.528,0.0
51142.0,STARLINK-3369,PAYLOAD,2023-12-31 04:26:29,15.0885055,0.0001679,53.2173,278.3046,90.8649,269.2536,2.4661e-06,-2.49e-06,0.0,0 STARLINK-3369,1 51142U 22005AQ  23365.18506694 -.00000249  00000-0  24661-5 0  9990,2 51142  53.2173 278.3046 0001679  90.8649 269.2536 15.08850550109320,6917.848,95.437,540.875,538.552,0.0
51142.0,STARLINK-3369,PAYLOAD,2023-12-31 21:55:45,15.08837919,0.0001605,53.2171,275.0319,99.8191,260.2983,-6.794e-05,-1.369e-05,0.0,0 STARLINK-3369,1 51142U 22005AQ  23365.91371695 -.00001369  00000-0 -67940-4 0  9993,2 51142  53.2171 275.0319 0001605  99.8191 260.2983 15.08837919108280,6917.887,95.438,540.862,538.641,0.0
51142.0,STARLINK-3369,PAYLOAD,2024-01-01 04:17:17,15.08838032,0.0001628,53.217,273.8422,101.0124,259.1051,-3.2138e-06,-3.39e-06,0.0,0 STARLINK-3369,1 51142U 22005AQ  24001.17867539 -.00000339  00000-0 -32138-5 0  9994,2 51142  53.2170 273.8422 0001628 101.0124 259.1051 15.08838032108322,6917.886,95.438,540.878,538.625,0.0
51142.0,STARLINK-3369,PAYLOAD,2024-01-01 21:46:31,15.08841992,0.0001583,53.2169,270.5712,100.1785,259.9386,2.1694e-05,5.7e-07,0.0,0 STARLINK-3369,1 51142U 22005AQ  24001.90731264  .00000057  00000-0  21694-4 0  9999,2 51142  53.2169 270.5712 0001583 100.1785 259.9386 15.08841992108439,6917.874,95.437,540.834,538.644,0.0
51142.0,STARLINK-3369,PAYLOAD,2024-01-02 00:57:17,15.08843536,0.0001598,53.217,269.9764,101.1055,259.0117,3.2307e-05,2.26e-06,0.0,0 STARLINK-3369,1 51142U 22005AQ  24002.03979101  .00000226  00000-0  32307-4 0  9999,2 51142  53.2170 269.9764 0001598 101.1055 259.0117 15.08843536109606,6917.87,95.437,540.84,538.629,0.0
51142.0,STARLINK-3369,PAYLOAD,2024-01-02 21:37:18,15.08838803,0.0001566,53.2169,266.1119,105.2312,254.8853,5.3914e-05,5.7e-06,0.0,0 STARLINK-3369,1 51142U 22005AQ  24002.90091373  .00000570  00000-0  53914-4 0  9990,2 51142  53.2169 266.1119 0001566 105.2312 254.8853 15.08838803108580,6917.884,95.438,540.832,538.666,0.0
51142.0,STARLINK-3369,PAYLOAD,2024-01-03 02:23:28,15.08841599,0.0001497,53.217,265.2198,93.032,267.0843,6.9555e-05,8.19e-06,0.0,0 STARLINK-3369,1 51142U 22005AQ  24003.09963210  .00000819  00000-0  69555-4 0  9993,2 51142  53.2170 265.2198 0001497  93.0320 267.0843 15.08841599109767,6917.876,95.437,540.776,538.705,0.0
51142.0,STARLINK-3369,PAYLOAD,2024-01-03 21:28:06,15.08839297,0.0001526,53.2174,261.6496,92.0168,268.0999,-4.0655e-05,-9.35e-06,0.0,0 STARLINK-3369,1 51142U 22005AQ  24003.89451827 -.00000935  00000-0 -40655-4 0  9998,2 51142  53.2174 261.6496 0001526  92.0168 268.0999 15.08839297108735,6917.883,95.438,540.803,538.692,0.0
